{
    "links": {
        "self": "http://www.neowsapp.com/rest/v1/neo/3740031?api_key=iIulBulltgU6a56xZRHN4H3l9WmuAYTsLGpBGhQ2"
    },
    "id": "3740031",
    "neo_reference_id": "3740031",
    "name": "(2016 AY164)",
    "designation": "2016 AY164",
    "nasa_jpl_url": "http://ssd.jpl.nasa.gov/sbdb.cgi?sstr=3740031",
    "absolute_magnitude_h": 23.9,
    "estimated_diameter": {
        "kilometers": {
            "estimated_diameter_min": 0.04411182,
            "estimated_diameter_max": 0.0986370281
        },
        "meters": {
            "estimated_diameter_min": 44.1118199997,
            "estimated_diameter_max": 98.6370281305
        },
        "miles": {
            "estimated_diameter_min": 0.0274098057,
            "estimated_diameter_max": 0.0612901888
        },
        "feet": {
            "estimated_diameter_min": 144.7238235278,
            "estimated_diameter_max": 323.6123073718
        }
    },
    "is_potentially_hazardous_asteroid": false,
    "close_approach_data": [
        {
            "close_approach_date": "2016-01-15",
            "close_approach_date_full": "2016-Jan-15 02:58",
            "epoch_date_close_approach": 1452826680000,
            "relative_velocity": {
                "kilometers_per_second": "19.7044251006",
                "kilometers_per_hour": "70935.9303623386",
                "miles_per_hour": "44076.8285076431"
            },
            "miss_distance": {
                "astronomical": "0.1129439402",
                "lunar": "43.9351927378",
                "kilometers": "16896172.883327374",
                "miles": "10498794.9941068012"
            },
            "orbiting_body": "Earth"
        }
    ],
    "orbital_data": {
        "orbit_id": "4",
        "orbit_determination_date": "2017-04-06 08:29:10",
        "first_observation_date": "2016-01-13",
        "last_observation_date": "2016-01-29",
        "data_arc_in_days": 16,
        "observations_used": 28,
        "orbit_uncertainty": "9",
        "minimum_orbit_intersection": ".111555",
        "jupiter_tisserand_invariant": "4.633",
        "epoch_osculation": "2457401.5",
        "eccentricity": ".2072515115677576",
        "semi_major_axis": "1.356674111058571",
        "inclination": "37.04488971877399",
        "ascending_node_longitude": "293.3995110857155",
        "orbital_period": "577.1806105603944",
        "perihelion_distance": "1.075501350836838",
        "perihelion_argument": "207.14261936",
        "aphelion_distance": "1.637846871280303",
        "perihelion_time": "2457428.760333828719",
        "mean_anomaly": "342.9971416246805",
        "mean_motion": ".6237215759040656",
        "equinox": "J2000",
        "orbit_class": {
            "orbit_class_type": "AMO",
            "orbit_class_description": "Near-Earth asteroid orbits similar to that of 1221 Amor",
            "orbit_class_range": "1.017 AU < q (perihelion) < 1.3 AU"
        }
    },
    "is_sentry_object": false
}